NORAD_CAT_ID,OBJECT_NAME,OBJECT_TYPE,EPOCH,MEAN_MOTION,ECCENTRICITY,INCLINATION,RA_OF_ASC_NODE,ARG_OF_PERICENTER,MEAN_ANOMALY,BSTAR,MEAN_MOTION_DOT,MEAN_MOTION_DDOT,TLE_LINE0,TLE_LINE1,TLE_LINE2,SEMIMAJOR_AXIS,PERIOD,APOGEE,PERIGEE,DECAYED
53860.0,STARLINK-4799,PAYLOAD,2022-11-17 22:00:00,15.73216061,0.0004059,53.2148,322.4587,5.1465,144.5355,0.00018208,0.00025034,0.0,0 STARLINK-4799,1 53860U 22114AU  22321.91667824  .00025034  00000-0  18208-3 0  9991,2 53860  53.2148 322.4587 0004059   5.1465 144.5355 15.73216061  1300,6727.849,91.532,352.445,346.9840000000001,0.0
53860.0,STARLINK-4799,PAYLOAD,2022-11-18 14:00:01,15.73265673,0.0004361,53.2147,319.1613,7.4434,320.1439,-0.00062278,-0.00087426,0.0,0 STARLINK-4799,1 53860U 22114AU  22322.58334491 -.00087426  00000-0 -62278-3 0  9997,2 53860  53.2147 319.1613 0004361   7.4434 320.1439 15.73265673 10105,6727.708000000001,91.529,352.50699999999995,346.639,0.0
53860.0,STARLINK-4799,PAYLOAD,2022-11-18 22:00:00,15.73210614,0.0004113,53.2147,317.51,6.7881,49.7728,0.00010025,0.0001348,0.0,0 STARLINK-4799,1 53860U 22114AU  22322.91667824  .00013480  00000-0  10025-3 0  9993,2 53860  53.2147 317.5100 0004113   6.7881  49.7728 15.73210614  1303,6727.865,91.533,352.497,346.963,0.0
53860.0,STARLINK-4799,PAYLOAD,2022-11-19 14:00:01,15.73179388,0.0004306,53.214,314.2124,2.9404,231.4852,0.00018767,0.00025784,0.0,0 STARLINK-4799,1 53860U 22114AU  22323.58334491  .00025784  00000-0  18767-3 0  9999,2 53860  53.2140 314.2124 0004306   2.9404 231.4852 15.73179388  1309,6727.954000000002,91.534,352.716,346.922,0.0
53860.0,STARLINK-4799,PAYLOAD,2022-11-19 22:00:00,15.73209381,0.0004078,53.2143,312.5611,3.3855,319.9538,0.00024506,0.00033935,0.0,0 STARLINK-4799,1 53860U 22114AU  22323.91667824  .00033935  00000-0  24506-3 0  9990,2 53860  53.2143 312.5611 0004078   3.3855 319.9538 15.73209381 10316,6727.868,91.533,352.477,346.99,0.0
53860.0,STARLINK-4799,PAYLOAD,2022-11-20 06:00:00,15.73226917,0.0004253999999999,53.2144,310.9135,2.5356,49.7607,-0.0006024,-0.00084472,0.0,0 STARLINK-4799,1 53860U 22114AU  22324.25001157 -.00084472  00000-0 -60240-3 0  9998,2 53860  53.2144 310.9135 0004254   2.5356  49.7607 15.73226917 10367,6727.818,91.532,352.545,346.821,0.0
53860.0,STARLINK-4799,PAYLOAD,2022-11-20 14:00:01,15.7318662,0.0004248,53.2142,309.2633,1.8689,139.3475,-5.6017e-05,-8.478e-05,0.0,0 STARLINK-4799,1 53860U 22114AU  22324.58334491 -.00008478  00000-0 -56017-4 0  9994,2 53860  53.2142 309.2633 0004248   1.8689 139.3475 15.73186620 10425,6727.933000000001,91.534,352.656,346.94,0.0
53860.0,STARLINK-4799,PAYLOAD,2022-11-20 22:00:00,15.73156744,0.0004039,53.2141,307.6123,5.2766,224.8554,0.00024735,0.00034181,0.0,0 STARLINK-4799,1 53860U 22114AU  22324.91667824  .00034181  00000-0  24735-3 0  9999,2 53860  53.2141 307.6123 0004039   5.2766 224.8554 15.73156744  1301,6728.019,91.536,352.601,347.166,0.0
53860.0,STARLINK-4799,PAYLOAD,2022-11-21 14:00:01,15.7323048,0.0004203,53.2136,304.3144,5.0855,42.8591,-0.00049135,-0.00069148,0.0,0 STARLINK-4799,1 53860U 22114AU  22325.58334491 -.00069148  00000-0 -49135-3 0  9998,2 53860  53.2136 304.3144 0004203   5.0855  42.8591 15.73230480  1301,6727.808000000001,91.531,352.501,346.846,0.0
53860.0,STARLINK-4799,PAYLOAD,2022-11-21 22:00:00,15.73182134,0.0003976,53.214,302.6633,5.8459,131.0324,0.00060682,0.00085374,0.0,0 STARLINK-4799,1 53860U 22114AU  22325.91667824  .00085374  00000-0  60682-3 0  9991,2 53860  53.2140 302.6633 0003976   5.8459 131.0324 15.73182134 10637,6727.946,91.534,352.486,347.136,0.0
53860.0,STARLINK-4799,PAYLOAD,2022-11-22 08:00:01,15.73202132,0.0004256,53.2142,300.6034,4.8205,333.2554,0.00022262,0.0003075,0.0,0 STARLINK-4799,1 53860U 22114AU  22326.33334491  .00030750  00000-0  22262-3 0  9999,2 53860  53.2142 300.6034 0004256   4.8205 333.2554 15.73202132 10690,6727.889,91.533,352.617,346.891,0.0
53860.0,STARLINK-4799,PAYLOAD,2022-11-22 14:00:01,15.73252481,0.0004125,53.214,299.3649,2.1632,312.6723,-0.00074926,-0.00104775,0.0,0 STARLINK-4799,1 53860U 22114AU  22326.58335648 -.00104775  00000-0 -74926-3 0  9996,2 53860  53.2140 299.3649 0004125   2.1632 312.6723 15.73252481  1303,6727.746,91.53,352.386,346.835,0.0
53860.0,STARLINK-4799,PAYLOAD,2022-11-22 22:00:00,15.73198954,0.0003895,53.2141,297.7142,1.9408,41.7708,3.0685e-05,3.685e-05,0.0,0 STARLINK-4799,1 53860U 22114AU  22326.91667824  .00003685  00000-0  30685-4 0  9998,2 53860  53.2141 297.7142 0003895   1.9408  41.7708 15.73198954 10784,6727.898,91.533,352.384,347.14300000000014,0.0
53860.0,STARLINK-4799,PAYLOAD,2022-11-23 14:00:01,15.73210198,0.0004048,53.2136,294.416,1.4189,220.1209,6.5088e-05,8.527e-05,0.0,0 STARLINK-4799,1 53860U 22114AU  22327.58334491  .00008527  00000-0  65088-4 0  9998,2 53860  53.2136 294.4160 0004048   1.4189 220.1209 15.73210198  1306,6727.866,91.533,352.455,347.0080000000001,0.0
53860.0,STARLINK-4799,PAYLOAD,2022-11-23 22:00:00,15.73253256,0.0003873,53.2141,292.7653,4.3481,306.1268,-0.00029317,-0.00041678,0.0,0 STARLINK-4799,1 53860U 22114AU  22327.91667824 -.00041678  00000-0 -29317-3 0  9994,2 53860  53.2141 292.7653 0003873   4.3481 306.1268 15.73253256  1304,6727.743,91.53,352.214,347.00300000000016,0.0
53860.0,STARLINK-4799,PAYLOAD,2022-11-24 00:00:00,15.73263,0.0003932,53.2141,292.3534,5.0749,57.6412,-0.00053361,-0.00075087,0.0,0 STARLINK-4799,1 53860U 22114AU  22328.00001157 -.00075087  00000-0 -53361-3 0  9993,2 53860  53.2141 292.3534 0003932   5.0749  57.6412 15.73263000 10957,6727.715999999999,91.53,352.226,346.935,0.0
53860.0,STARLINK-4799,PAYLOAD,2022-11-24 14:00:01,15.73192584,0.0004056,53.2142,289.4669,4.7402,123.6515,0.00012123,0.00016424,0.0,0 STARLINK-4799,1 53860U 22114AU  22328.58334491  .00016424  00000-0  12123-3 0  9995,2 53860  53.2142 289.4669 0004056   4.7402 123.6515 15.73192584  1309,6727.916,91.534,352.51,347.052,0.0
53860.0,STARLINK-4799,PAYLOAD,2022-11-24 22:00:00,15.73245526,0.0003862,53.2142,287.8166,5.5755,211.7315,-0.00026432,-0.00037643,0.0,0 STARLINK-4799,1 53860U 22114AU  22328.91667824 -.00037643  00000-0 -26432-3 0  9997,2 53860  53.2142 287.8166 0003862   5.5755 211.7315 15.73245526  1309,6727.765,91.531,352.22900000000016,347.032,0.0
53860.0,STARLINK-4799,PAYLOAD,2022-11-25 14:00:01,15.73204335,0.0003927,53.2136,284.5181,1.3766,33.8447,-0.00022137,-0.00031596,0.0,0 STARLINK-4799,1 53860U 22114AU  22329.58334491 -.00031596  00000-0 -22137-3 0  9991,2 53860  53.2136 284.5181 0003927   1.3766  33.8447 15.73204335  1303,6727.8830000000025,91.533,352.39,347.106,0.0
53860.0,STARLINK-4799,PAYLOAD,2022-11-25 22:00:00,15.73206252,0.00038,53.214,282.868,2.3424,121.799,0.00051666,0.00072558,0.0,0 STARLINK-4799,1 53860U 22114AU  22329.91667824  .00072558  00000-0  51666-3 0  9997,2 53860  53.2140 282.8680 0003800   2.3424 121.7990 15.73206252 11261,6727.877,91.533,352.2990000000001,347.186,0.0
53860.0,STARLINK-4799,PAYLOAD,2022-11-26 14:00:01,15.73267108,0.0003952,53.214,279.5693,1.2345,300.8603,-0.00073265,-0.00102551,0.0,0 STARLINK-4799,1 53860U 22114AU  22330.58334491 -.00102551  00000-0 -73265-3 0  9991,2 53860  53.2140 279.5693 0003952   1.2345 300.8603 15.73267108 11365,6727.704000000002,91.529,352.228,346.91,0.0
53860.0,STARLINK-4799,PAYLOAD,2022-11-26 22:00:00,15.73217762,0.0003853,53.2138,277.9194,2.0268,29.0292,-0.00053591,-0.00075259,0.0,0 STARLINK-4799,1 53860U 22114AU  22330.91667824 -.00075259  00000-0 -53591-3 0  9991,2 53860  53.2138 277.9194 0003853   2.0268  29.0292 15.73217762  1301,6727.845,91.532,352.302,347.117,0.0
53860.0,STARLINK-4799,PAYLOAD,2022-11-27 08:00:01,15.73149494,0.0004102,53.2129,275.8595,0.8167,231.3801,0.00024986,0.00034525,0.0,0 STARLINK-4799,1 53860U 22114AU  22331.33334491  .00034525  00000-0  24986-3 0  9994,2 53860  53.2129 275.8595 0004102   0.8167 231.3801 15.73149494 11485,6728.0390000000025,91.536,352.664,347.144,0.0
53860.0,STARLINK-4799,PAYLOAD,2022-11-27 14:00:01,15.73150822,0.0003939,53.2131,274.6208,2.9205,205.9327,-9.1345e-05,-0.00013402,0.0,0 STARLINK-4799,1 53860U 22114AU  22331.58334491 -.00013402  00000-0 -91345-4 0  9998,2 53860  53.2131 274.6208 0003939   2.9205 205.9327 15.73150822 11521,6728.035,91.536,352.551,347.25,0.0
53860.0,STARLINK-4799,PAYLOAD,2022-11-27 22:00:00,15.73157984,0.0003833,53.2131,272.9713,5.7672,291.9321,0.00030548,0.00042403,0.0,0 STARLINK-4799,1 53860U 22114AU  22331.91667824  .00042403  00000-0  30548-3 0  9992,2 53860  53.2131 272.9713 0003833   5.7672 291.9321 15.73157984  1305,6728.015,91.536,352.459,347.301,0.0
53860.0,STARLINK-4799,PAYLOAD,2022-11-28 08:00:01,15.73214651,0.0004095,53.2134,270.9112,4.5102,134.3135,-9.3603e-05,-0.00013755,0.0,0 STARLINK-4799,1 53860U 22114AU  22332.33334491 -.00013755  00000-0 -93603-4 0  9992,2 53860  53.2134 270.9112 0004095   4.5102 134.3135 15.73214651 11641,6727.853,91.532,352.473,346.963,0.0
53860.0,STARLINK-4799,PAYLOAD,2022-11-28 22:00:01,15.73226914,0.0003856,53.2145,268.0228,4.6967,199.8215,0.00027862,0.00038718,0.0,0 STARLINK-4799,1 53860U 22114AU  22332.91668981  .00038718  00000-0  27862-3 0  9997,2 53860  53.2145 268.0228 0003856   4.6967 199.8215 15.73226914 11733,6727.818,91.532,352.278,347.089,0.0
53860.0,STARLINK-4799,PAYLOAD,2022-11-29 14:00:01,15.73199045,0.0003806,53.214,264.7233,1.1851,21.3025,-4.7902e-05,-7.344e-05,0.0,0 STARLINK-4799,1 53860U 22114AU  22333.58335648 -.00007344  00000-0 -47902-4 0  9993,2 53860  53.2140 264.7233 0003806   1.1851  21.3025 15.73199045 11839,6727.898,91.533,352.324,347.202,0.0
53860.0,STARLINK-4799,PAYLOAD,2022-11-29 22:00:00,15.73180379,0.000379,53.2141,263.074,4.0974,107.2495,7.8001e-05,0.00010331,0.0,0 STARLINK-4799,1 53860U 22114AU  22333.91667824  .00010331  00000-0  78001-4 0  9996,2 53860  53.2141 263.0740 0003790   4.0974 107.2495 15.73180379  1301,6727.951,91.534,352.366,347.266,0.0
